[{"OBJECT_NAME":"KUIPER-00058","OBJECT_ID":"2025-134U","EPOCH":"2026-03-09T15:19:13.617984","MEAN_MOTION":14.79975539,"ECCENTRICITY":6.28e-5,"INCLINATION":51.9027,"RA_OF_ASC_NODE":225.7628,"ARG_OF_PERICENTER":103.1746,"MEAN_ANOMALY":256.9286,"EPHEMERIS_TYPE":0,"CLASSIFICATION_TYPE":"U","NORAD_CAT_ID":64518,"ELEMENT_SET_NO":999,"REV_AT_EPOCH":4017,"BSTAR":8.4835e-5,"MEAN_MOTION_DOT":4.26e-6,"MEAN_MOTION_DDOT":0},{"OBJECT_NAME":"CZ-2D R\/B","OBJECT_ID":"2022-115B","EPOCH":"2026-03-09T18:12:21.553056","MEAN_MOTION":14.71713685,"ECCENTRICITY":0.01166618,"INCLINATION":98.4206,"RA_OF_ASC_NODE":141.0162,"ARG_OF_PERICENTER":26.5061,"MEAN_ANOMALY":334.2047,"EPHEMERIS_TYPE":0,"CLASSIFICATION_TYPE":"U","NORAD_CAT_ID":53878,"ELEMENT_SET_NO":999,"REV_AT_EPOCH":18593,"BSTAR":0.0001506272,"MEAN_MOTION_DOT":9.83e-6,"MEAN_MOTION_DDOT":0}]
